OBJECT_NAME,OBJECT_ID,EPOCH,MEAN_MOTION,ECCENTRICITY,INCLINATION,RA_OF_ASC_NODE,ARG_OF_PERICENTER,MEAN_ANOMALY,EPHEMERIS_TYPE,CLASSIFICATION_TYPE,NORAD_CAT_ID,ELEMENT_SET_NO,REV_AT_EPOCH,BSTAR,MEAN_MOTION_DOT,MEAN_MOTION_DDOT
COSMOS 2507 (RODNIK-S 13),2015-050A,2026-07-18T15:00:04.124736,12.42927948,.00089485,82.4899,60.0930,284.9032,75.1056,0,U,40920,999,49076,.60485775E-3,.94E-6,0
COSMOS 2508 (RODNIK-S 14),2015-050B,2026-07-18T13:55:43.299264,12.42915902,.00137932,82.4851,58.6139,319.2248,40.7798,0,U,40921,999,49074,.10419411E-2,.154E-5,0
COSMOS 2509 (RODNIK-S 15),2015-050C,2026-07-18T14:26:07.039968,12.42885172,.00144469,82.4860,58.7064,336.6655,23.3767,0,U,40922,999,49078,.68239479E-3,.104E-5,0
LINGQIAO VIDEO A,2015-057B,2026-07-18T15:38:20.692896,14.77427045,.00169684,97.6636,192.9044,161.8082,198.3740,0,U,40959,999,58005,-.1862141E-4,-.181E-5,0
LINGQIAO VIDEO B,2015-057C,2026-07-18T15:01:30.375264,14.77535611,.00171416,97.6600,194.0352,161.9502,198.2322,0,U,40960,999,58009,.98667979E-4,.657E-5,0
JILIN-1,2015-057D,2026-07-18T13:23:10.304160,14.78204095,.00175153,97.6521,197.3695,156.2418,203.9606,0,U,40961,999,58024,.52160176E-4,.33E-5,0
FOX-1A (AO-85),2015-058D,2026-07-18T08:09:07.716096,14.91099552,.01326239,64.7725,182.1599,44.6185,316.5509,0,U,40967,999,11821,.15554856E-3,.1647E-4,0
SINOD-D 1,2015-058E,2026-07-18T07:07:22.827072,14.96105749,.01213214,64.7739,161.4732,40.9859,320.0295,0,U,40968,999,12131,.22386734E-3,.2745E-4,0
ELEKTRO-L 2,2015-074A,2026-07-18T09:44:02.508576,1.00272087,.00009578,6.7707,70.1389,220.4397,137.1429,0,U,41105,999,3881,0,-.128E-5,0
DAMPE,2015-078A,2026-07-18T14:37:48.372096,15.30858468,.00112077,97.4562,205.2335,333.0884,26.9774,0,U,41173,999,58935,.26453271E-4,.712E-5,0
ORBCOMM FM110,2015-081D,2026-07-18T11:16:43.970304,14.58920438,.00037038,47.0001,213.5241,235.7933,124.2602,0,U,41182,999,56219,.69320751E-4,.157E-5,0
ORBCOMM FM112,2015-081F,2026-07-18T12:12:00.641664,14.58941020,.00034975,46.9986,122.1316,342.5987,17.4778,0,U,41184,999,56352,.82490056E-4,.219E-5,0
ORBCOMM FM113,2015-081G,2026-07-18T03:26:50.432064,14.58883692,.00020617,47.0002,124.2491,332.9618,27.1161,0,U,41185,999,56345,.59319698E-4,.109E-5,0
ORBCOMM FM108,2015-081J,2026-07-18T14:02:21.359616,14.58913023,.00024348,47.0057,33.7439,335.1382,24.9386,0,U,41187,999,56466,.7750007E-4,.195E-5,0
ORBCOMM FM117,2015-081K,2026-07-18T13:13:03.367488,14.58900026,.0002841,47.0021,32.5320,343.0529,17.0261,0,U,41188,999,56470,.7476265E-4,.182E-5,0
ORBCOMM FM116,2015-081L,2026-07-18T04:31:20.203392,14.58908278,.00016468,47.0016,124.0343,237.6891,122.3836,0,U,41189,999,56346,.67478251E-4,.148E-5,0
ZIYUAN 3-02 (ZY 3-02),2016-033A,2026-07-18T15:06:38.723040,15.21453119,.00144474,97.3822,274.7997,173.0150,187.1290,0,U,41556,999,56276,.11624791E-3,.2549E-4,0
CARTOSAT-2C,2016-040A,2026-07-18T14:37:41.638944,15.19280531,.00093574,97.4462,259.1523,34.7633,325.4211,0,U,41599,999,55848,.1238769E-3,.2547E-4,0
LAPAN-A3,2016-040E,2026-07-18T15:34:33.630240,15.33289713,.00082682,97.1507,194.7675,260.8485,99.1823,0,U,41603,999,55963,.50772874E-4,.156E-4,0
GAOFEN-3,2016-049A,2026-07-18T15:37:20.961120,14.42218475,.00017558,98.4016,206.9626,82.2641,277.8748,0,U,41727,999,52318,-.17095865E-4,-.1E-5,0
CAS-2T & KS-1Q,2016-066G,2026-07-18T04:45:35.623008,14.44773637,.03421011,98.3813,274.5797,35.6619,326.6912,0,U,41847,999,50927,.71851879E-4,.451E-5,0
YUNHAI-1 01,2016-068A,2026-07-18T14:17:53.651904,14.32723833,.00029647,98.5845,210.3119,337.6481,22.4574,0,U,41857,999,50632,.66666947E-4,.137E-5,0
RESOURCESAT-2A,2016-074A,2026-07-18T14:27:03.127392,14.21611135,.00021956,98.7516,272.8482,20.3309,339.7955,0,U,41877,999,49876,.2556802E-3,.517E-5,0
TANSAT,2016-081A,2026-07-18T15:18:08.514720,14.59972367,.00196084,98.5372,200.8266,208.9935,151.0176,0,U,41898,999,50921,.20631279E-4,.48E-6,0
