COSMOS 2507 (RODNIK-S *)
1 40920U 15050A   26199.62504774  .00000094  00000+0  60486-3 0  9997
2 40920  82.4899  60.0930 0008948 284.9032  75.1056 12.42927948490760
COSMOS 2508 (RODNIK-S *)
1 40921U 15050B   26199.58036226  .00000154  00000+0  10419-2 0  9992
2 40921  82.4851  58.6139 0013793 319.2248  40.7798 12.42915902490744
COSMOS 2509 (RODNIK-S *)
1 40922U 15050C   26199.60147037  .00000104  00000+0  68239-3 0  9998
2 40922  82.4860  58.7064 0014446 336.6655  23.3767 12.42885172490786
LINGQIAO VIDEO A        
1 40959U 15057B   26199.65162839 -.00000181  00000+0 -18621-4 0  9995
2 40959  97.6636 192.9044 0016968 161.8082 198.3740 14.77427045580052
LINGQIAO VIDEO B        
1 40960U 15057C   26199.62604601  .00000657  00000+0  98668-4 0  9997
2 40960  97.6600 194.0352 0017141 161.9502 198.2322 14.77535611580090
JILIN-1                 
1 40961U 15057D   26199.55775815  .00000330  00000+0  52160-4 0  9991
2 40961  97.6521 197.3695 0017515 156.2418 203.9606 14.78204095580243
FOX-1A (AO-85)          
1 40967U 15058D   26199.33967264  .00001647  00000+0  15555-3 0  9993
2 40967  64.7725 182.1599 0132623  44.6185 316.5509 14.91099552118216
SINOD-D 1               
1 40968U 15058E   26199.29679198  .00002745  00000+0  22387-3 0  9996
2 40968  64.7739 161.4732 0121321  40.9859 320.0295 14.96105749121319
ELEKTRO-L 2             
1 41105U 15074A   26199.40558459 -.00000128  00000+0  00000+0 0  9995
2 41105   6.7707  70.1389 0000957 220.4397 137.1429  1.00272087 38810
DAMPE                   
1 41173U 15078A   26199.60958764  .00000712  00000+0  26453-4 0  9992
2 41173  97.4562 205.2335 0011207 333.0884  26.9774 15.30858468589354
ORBCOMM FM110           
1 41182U 15081D   26199.46995336  .00000157  00000+0  69321-4 0  9990
2 41182  47.0001 213.5241 0003703 235.7933 124.2602 14.58920438562197
ORBCOMM FM112           
1 41184U 15081F   26199.50834076  .00000219  00000+0  82490-4 0  9991
2 41184  46.9986 122.1316 0003497 342.5987  17.4778 14.58941020563528
ORBCOMM FM113           
1 41185U 15081G   26199.14363926  .00000109  00000+0  59320-4 0  9997
2 41185  47.0002 124.2491 0002061 332.9618  27.1161 14.58883692563453
ORBCOMM FM108           
1 41187U 15081J   26199.58496944  .00000195  00000+0  77500-4 0  9999
2 41187  47.0057  33.7439 0002434 335.1382  24.9386 14.58913023564668
ORBCOMM FM117           
1 41188U 15081K   26199.55073342  .00000182  00000+0  74763-4 0  9994
2 41188  47.0021  32.5320 0002841 343.0529  17.0261 14.58900026564708
ORBCOMM FM116           
1 41189U 15081L   26199.18842828  .00000148  00000+0  67478-4 0  9994
2 41189  47.0016 124.0343 0001646 237.6891 122.3836 14.58908278563464
ZIYUAN 3-02 (ZY 3-02)   
1 41556U 16033A   26199.62961485  .00002549  00000+0  11625-3 0  9999
2 41556  97.3822 274.7997 0014447 173.0150 187.1290 15.21453119562762
CARTOSAT-2C             
1 41599U 16040A   26199.60950971  .00002547  00000+0  12388-3 0  9995
2 41599  97.4462 259.1523 0009357  34.7633 325.4211 15.19280531558482
LAPAN-A3                
1 41603U 16040E   26199.64900035  .00001560  00000+0  50773-4 0  9996
2 41603  97.1507 194.7675 0008268 260.8485  99.1823 15.33289713559633
GAOFEN-3                
1 41727U 16049A   26199.65093705 -.00000100  00000+0 -17096-4 0  9992
2 41727  98.4016 206.9626 0001755  82.2641 277.8748 14.42218475523183
CAS-2T & KS-1Q          
1 41847U 16066G   26199.19832897  .00000451  00000+0  71852-4 0  9993
2 41847  98.3813 274.5797 0342101  35.6619 326.6912 14.44773637509278
YUNHAI-1 01             
1 41857U 16068A   26199.59575986  .00000137  00000+0  66667-4 0  9992
2 41857  98.5845 210.3119 0002964 337.6481  22.4574 14.32723833506322
RESOURCESAT-2A          
1 41877U 16074A   26199.60211953  .00000517  00000+0  25568-3 0  9990
2 41877  98.7516 272.8482 0002195  20.3309 339.7955 14.21611135498762
TANSAT                  
1 41898U 16081A   26199.63759855  .00000048  00000+0  20631-4 0  9998
2 41898  98.5372 200.8266 0019608 208.9935 151.0176 14.59972367509211
